{"version": 0.6, "generator": "Overpass API 0.7.60.2 e4cf9f7a", "osm3s": {"timestamp_osm_base": "2023-05-21T17:30:24Z", "timestamp_areas_base": "2023-05-21T16:11:20Z", "copyright": "The data included in this document is from www.openstreetmap.org. The data is made available under ODbL."}, "elements": [{"type": "node", "id": 271275603, "lat": 41.8848116, "lon": -87.6255101, "tags": {"amenity": "theatre", "name": "Storefront Theater"}}, {"type": "node", "id": 271275794, "lat": 41.8759684, "lon": -87.6251452, "tags": {"addr:city": "Chicago", "addr:housenumber": "50", "addr:postcode": "60605", "addr:state": "IL", "addr:street": "East Ida B. Wells Drive", "amenity": "theatre", "name": "Auditorium Theatre", "wikidata": "Q16975731", "wikipedia": "en:Auditorium Theatre"}}, {"type": "node", "id": 311438932, "lat": 41.9757947, "lon": -87.6693323, "tags": {"amenity": "theatre", "name": "Neofuturists", "website": "http://www.neofuturists.org/", "wikidata": "Q16254317", "wikipedia": "en:Neo-Futurists"}}, {"type": "node", "id": 313107974, "lat": 41.8918968, "lon": -87.6092419, "tags": {"addr:city": "Chicago", "addr:housenumber": "700", "addr:postcode": "60611", "addr:state": "IL", "addr:street": "East Grand Avenue", "amenity": "cinema", "name": "Navy Pier IMAX Theatre", "opening_hours:covid19": "closed", "website": "https://www.imax.com/oo/navy-pier-imax/", "wikidata": "Q37760649"}}, {"type": "node", "id": 368064616, "lat": 41.7883006, "lon": -87.595584, "tags": {"addr:city": "Chicago", "addr:housenumber": "1212", "addr:postcode": "60637", "addr:state": "IL", "addr:street": "East 59th Street", "amenity": "cinema", "ele": "180", "gnis:county_name": "Cook", "gnis:feature_id": "1831050", "gnis:import_uuid": "57871b70-0100-4405-bb30-88b2e001a944", "gnis:reviewed": "no", "name": "Max Palevsky Cinema", "source": "http://docfilms.uchicago.edu/dev/", "wikidata": "Q5287048", "wikipedia": "en:Doc Films"}}, {"type": "node", "id": 368065327, "lat": 41.9952348, "lon": -87.6551382, "tags": {"addr:state": "IL", "amenity": "arts_centre", "ele": "182", "gnis:county_name": "Cook", "gnis:feature_id": "1831506", "gnis:import_uuid": "57871b70-0100-4405-bb30-88b2e001a944", "gnis:reviewed": "no", "name": "North Lakeside Cultural Center", "source": "USGS Geonames"}}, {"type": "node", "id": 368065331, "lat": 41.9196663, "lon": -87.6358572, "tags": {"addr:state": "IL", "amenity": "arts_centre", "ele": "183", "gnis:county_name": "Cook", "gnis:feature_id": "1831345", "gnis:import_uuid": "57871b70-0100-4405-bb30-88b2e001a944", "gnis:reviewed": "no", "name": "Lincoln Park Cultural Arts Center and Recreation Building", "source": "USGS Geonames"}}, {"type": "node", "id": 368065517, "lat": 41.7644926, "lon": -87.6867486, "tags": {"addr:state": "IL", "amenity": "arts_centre", "ele": "184", "gnis:county_name": "Cook", "gnis:feature_id": "2100158", "gnis:import_uuid": "57871b70-0100-4405-bb30-88b2e001a944", "gnis:reviewed": "no", "name": "Ephraim Bajar Cultural Center", "source": "USGS Geonames"}}, {"type": "node", "id": 368069209, "lat": 41.9497837, "lon": -87.6590034, "tags": {"addr:city": "Chicago", "addr:housenumber": "3730", "addr:postcode": "60613", "addr:state": "IL", "addr:street": "North Clark Street", "amenity": "theatre", "ele": "184", "gnis:county_name": "Cook", "gnis:feature_id": "1831530", "gnis:import_uuid": "57871b70-0100-4405-bb30-88b2e001a944", "gnis:reviewed": "yes", "name": "Metro", "source": "+1 773 549 0203", "wheelchair": "no", "wikidata": "Q6824526", "wikipedia": "en:Metro Chicago"}}, {"type": "node", "id": 368069217, "lat": 41.897255, "lon": -87.6331086, "tags": {"addr:state": "IL", "amenity": "theatre", "ele": "179", "gnis:county_name": "Cook", "gnis:feature_id": "1831186", "gnis:import_uuid": "57871b70-0100-4405-bb30-88b2e001a944", "gnis:reviewed": "no", "name": "Moody Bible Auditorium", "source": "USGS Geonames"}}, {"type": "node", "id": 368069220, "lat": 41.9694501, "lon": -87.6605129, "tags": {"addr:city": "Chicago", "addr:housenumber": "4816", "addr:postcode": "60640", "addr:state": "IL", "addr:street": "North Broadway", "amenity": "theatre", "ele": "181", "gnis:county_name": "Cook", "gnis:feature_id": "1837081", "gnis:import_uuid": "57871b70-0100-4405-bb30-88b2e001a944", "name": "Uptown Theatre", "source": "USGS Geonames", "wikidata": "Q7899457", "wikipedia": "en:Uptown Theatre (Chicago)"}}, {"type": "node", "id": 368069227, "lat": 41.8809687, "lon": -87.6285598, "tags": {"addr:city": "Chicago", "addr:housenumber": "18", "addr:postcode": "60603", "addr:state": "IL", "addr:street": "West Monroe Street", "amenity": "theatre", "ele": "182", "gnis:county_name": "Cook", "gnis:feature_id": "1836694", "gnis:import_uuid": "57871b70-0100-4405-bb30-88b2e001a944", "gnis:reviewed": "no", "name": "CIBC Theatre", "wikidata": "Q921206", "wikipedia": "en:CIBC Theatre"}}, {"type": "node", "id": 368069235, "lat": 42.00183, "lon": -87.6644006, "tags": {"addr:state": "IL", "amenity": "theatre", "ele": "184", "gnis:county_name": "Cook", "gnis:feature_id": "1833246", "gnis:import_uuid": "57871b70-0100-4405-bb30-88b2e001a944", "gnis:reviewed": "no", "name": "Saint Ignatius Auditorium", "source": "USGS Geonames"}}, {"type": "node", "id": 424216485, "lat": 41.9398122, "lon": -87.6526992, "tags": {"amenity": "theatre", "name": "Comedy Sportz"}}, {"type": "node", "id": 452376997, "lat": 41.9264521, "lon": -87.649776, "tags": {"addr:city": "Chicago", "addr:housenumber": "2433", "addr:street": "North Lincoln Avenue", "amenity": "cinema", "name": "Biograph Theatre", "tourism": "attraction", "wheelchair": "yes", "wikidata": "Q4914863", "wikipedia": "en:Biograph Theater"}}, {"type": "node", "id": 463772269, "lat": 41.9213456, "lon": -87.6654001, "tags": {"addr:city": "Chicago", "addr:housenumber": "1471", "addr:postcode": "60614", "addr:state": "IL", "addr:street": "West Webster Avenue", "amenity": "cinema", "brand": "Regal Cinemas", "brand:wikidata": "Q835638", "brand:wikipedia": "en:Regal Cinemas", "name": "Regal Webster Place", "operator": "Kerasotes", "screen": "11", "short_name": "Regal", "website": "https://www.regmovies.com/theatres/regal-webster-place/1793", "wikidata": "Q42537818"}}, {"type": "node", "id": 1053666900, "lat": 41.9584741, "lon": -87.7883901, "tags": {"amenity": "theatre", "name": "Stage Wright Theater"}}, {"type": "node", "id": 1586352085, "lat": 41.8848416, "lon": -87.6288009, "tags": {"addr:city": "Chicago", "addr:housenumber": "24", "addr:postcode": "60601", "addr:state": "IL", "addr:street": "West Randolph Street", "amenity": "theatre", "name": "James M. Nederlander Theatre", "wikidata": "Q3077068", "wikipedia": "en:Nederlander Theatre (Chicago)"}}, {"type": "node", "id": 1586385054, "lat": 41.8848075, "lon": -87.6282703, "tags": {"addr:city": "Chicago", "addr:housenumber": "164", "addr:postcode": "60601", "addr:state": "IL", "addr:street": "North State Street", "amenity": "cinema", "name": "Gene Siskel Film Center", "wikidata": "Q5531450", "wikipedia": "en:Gene Siskel Film Center"}}, {"type": "node", "id": 1892871989, "lat": 41.8914092, "lon": -87.6187573, "tags": {"addr:city": "Chicago", "addr:housenumber": "322", "addr:postcode": "60611", "addr:state": "IL", "addr:street": "East Illinois Street", "amenity": "cinema", "brand": "AMC", "brand:wikidata": "Q294721", "brand:wikipedia": "en:AMC Theatres", "name": "AMC River East 21", "screen": "21", "website": "https://www.amctheatres.com/movie-theatres/chicago/amc-river-east-21", "wheelchair": "yes", "wikidata": "Q42538294"}}, {"type": "node", "id": 2071061523, "lat": 41.9298021, "lon": -87.7088574, "tags": {"addr:city": "Chicago", "addr:housenumber": "2646", "addr:postcode": "60647", "addr:street": "North Milwaukee Avenue", "amenity": "cinema", "name": "Logan Theater", "wikidata": "Q42537921"}}, {"type": "node", "id": 2110031965, "lat": 41.9116127, "lon": -87.6348918, "tags": {"addr:city": "Chicago", "addr:country": "US", "addr:housenumber": "1628", "addr:postcode": "60614", "addr:state": "IL", "addr:street": "North Wells Street", "amenity": "theatre", "entrance": "yes", "name": "The Second City", "name:en": "The Second City", "source": "Bing 2012"}}, {"type": "node", "id": 2560067669, "lat": 41.8819299, "lon": -87.6247089, "tags": {"addr:city": "Chicago", "addr:housenumber": "8", "addr:postcode": "60603", "addr:state": "IL", "addr:street": "South Michigan Avenue", "addr:unit": "1220", "amenity": "arts_centre", "name": "Bert Green Fine Art", "phone": "+1 312-434-7544", "website": "https://bgfa.us/", "wheelchair": "yes"}}, {"type": "node", "id": 2633057627, "lat": 42.0080948, "lon": -87.6650332, "tags": {"addr:city": "Chicago", "addr:housenumber": "1328", "addr:postcode": "60626", "addr:street": "West Morse Avenue", "amenity": "theatre", "name": "Rhapsody Theater", "website": "https://rhapsodytheater.com", "wheelchair": "yes"}}, {"type": "node", "id": 2708233532, "lat": 41.8926601, "lon": -87.6252293, "tags": {"addr:city": "Chicago", "addr:housenumber": "600", "addr:postcode": "60611", "addr:state": "IL", "addr:street": "North Michigan Avenue", "amenity": "cinema", "brand": "AMC", "brand:wikidata": "Q294721", "brand:wikipedia": "en:AMC Theatres", "name": "AMC Dine-In 600 North Michigan 9", "screen": "9", "wikidata": "Q42538287"}}, {"type": "node", "id": 3218813269, "lat": 41.799094, "lon": -87.5876633, "tags": {"addr:city": "Chicago", "addr:housenumber": "5311", "addr:postcode": "60615", "addr:state": "IL", "addr:street": "South Lake Park Avenue West", "amenity": "theatre", "bar": "yes", "name": "The Promontory", "outdoor_seating": "yes", "phone": "+1-312-801-2100", "website": "https://www.promontorychicago.com/"}}, {"type": "node", "id": 3226638422, "lat": 41.9443038, "lon": -87.7051587, "tags": {"amenity": "arts_centre", "name": "The Art House"}}, {"type": "node", "id": 3323773297, "lat": 41.9084267, "lon": -87.6465893, "tags": {"addr:city": "Chicago", "addr:housenumber": "1500", "addr:postcode": "60610", "addr:state": "IL", "addr:street": "North Clybourn Avenue", "amenity": "cinema", "brand": "AMC", "brand:wikidata": "Q294721", "name": "AMC NewCity 14", "screen": "14", "website": "https://www.amctheatres.com/movie-theatres/chicago/amc-newcity-14", "wikidata": "Q42537734"}}, {"type": "node", "id": 3430973092, "lat": 41.9061186, "lon": -87.6705558, "tags": {"addr:city": "Chicago", "addr:housenumber": "1329", "addr:postcode": "60622", "addr:state": "IL", "addr:street": "North Milwaukee Avenue", "alt_name": "The Den Coffee Haven", "amenity": "theatre", "amenity_1": "bar", "amenity_2": "cafe", "name": "The Den"}}, {"type": "node", "id": 3466476274, "lat": 41.977462, "lon": -87.668084, "tags": {"addr:city": "Chicago", "addr:housenumber": "5243", "addr:postcode": "60640", "addr:state": "IL", "addr:street": "North Clark Street", "amenity": "cinema", "disused:amenity": "cinema", "name": "Chicago Filmmakers", "phone": "+1 773 293 0575", "website": "http://chicagofilmmakers.org/", "wikidata": "Q30257940"}}, {"type": "node", "id": 3502294532, "lat": 41.9121871, "lon": -87.6480798, "tags": {"amenity": "theatre", "name": "Royal George Theater"}}, {"type": "node", "id": 3502294538, "lat": 41.9084994, "lon": -87.6518345, "tags": {"addr:housenumber": "1501", "addr:street": "North Kingsbury Street", "amenity": "theatre", "name": "iO Theater", "wikidata": "Q5972935", "wikipedia": "en:IO Theater"}}, {"type": "node", "id": 3575010905, "lat": 41.9321144, "lon": -87.7127287, "tags": {"addr:city": "Chicago", "addr:housenumber": "2800", "addr:postcode": "60618", "addr:state": "IL", "addr:street": "North Milwaukee Avenue", "amenity": "arts_centre", "name": "Hairpin Arts Center"}}, {"type": "node", "id": 3575010906, "lat": 41.9324975, "lon": -87.7135237, "tags": {"amenity": "arts_centre", "name": "Elastic Arts Foundation"}}, {"type": "node", "id": 3586689392, "lat": 41.8518086, "lon": -87.6117881, "tags": {"addr:city": "Chicago", "addr:housenumber": "2301", "addr:postcode": "60616", "addr:state": "IL", "addr:street": "South Lake Shore Drive", "amenity": "theatre", "name": "Arie Crown Theater", "wikidata": "Q4790333"}}, {"type": "node", "id": 3740646770, "lat": 41.9779003, "lon": -87.6689057, "tags": {"addr:city": "Chicago", "addr:housenumber": "1515", "addr:postcode": "60640", "addr:state": "IL", "addr:street": "West Berwyn Avenue", "amenity": "theatre", "name": "pH Comedy", "phone": "+1-773-961-8214", "website": "http://whatisph.com/"}}, {"type": "node", "id": 3988701727, "lat": 41.9544303, "lon": -87.7487011, "tags": {"amenity": "theatre", "name": "Filament Theatre"}}, {"type": "node", "id": 4036847469, "lat": 41.8982462, "lon": -87.6223534, "tags": {"amenity": "theatre", "name": "Broadway Playhouse at Water Tower Place", "wikidata": "Q4972494", "wikipedia": "en:Broadway Playhouse at Water Tower Place"}}, {"type": "node", "id": 4036939574, "lat": 41.9133466, "lon": -87.7112397, "tags": {"amenity": "arts_centre", "name": "Kimball Arts Center"}}, {"type": "node", "id": 4045036121, "lat": 41.9232219, "lon": -87.6453824, "tags": {"addr:city": "Chicago", "addr:housenumber": "2257", "addr:postcode": "60614", "addr:state": "IL", "addr:street": "North Lincoln Avenue", "amenity": "theatre", "name": "Greenhouse Theater Center", "website": "http://www.greenhousetheater.org", "wikidata": "Q5604167"}}, {"type": "node", "id": 4061766455, "lat": 41.9277493, "lon": -87.7067189, "tags": {"amenity": "theatre", "name": "Logan Square Auditorium"}}, {"type": "node", "id": 4077182125, "lat": 41.7640192, "lon": -87.5936091, "tags": {"addr:city": "Chicago", "addr:housenumber": "7200", "addr:postcode": "60619", "addr:state": "IL", "addr:street": "South Kimbark Avenue", "amenity": "cinema", "name": "Black Cinema House", "website": "https://rebuild-foundation.org/site/black-cinema-house/"}}, {"type": "node", "id": 4089091483, "lat": 41.9545292, "lon": -87.7486055, "tags": {"amenity": "arts_centre", "name": "Inside Out Art Studio"}}, {"type": "node", "id": 4089091484, "lat": 41.9546289, "lon": -87.7485116, "tags": {"amenity": "arts_centre", "name": "Chicago Ballet Center"}}, {"type": "node", "id": 4089091901, "lat": 41.9531386, "lon": -87.7482455, "tags": {"amenity": "arts_centre", "name": "Rico Music & Art"}}, {"type": "node", "id": 4186479470, "lat": 41.9679485, "lon": -87.7610248, "tags": {"addr:city": "Chicago", "addr:housenumber": "4802", "addr:postcode": "60630", "addr:state": "IL", "addr:street": "North Milwaukee Avenue", "amenity": "theatre", "name": "The Gift Theatre"}}, {"type": "node", "id": 4939803966, "lat": 42.0047872, "lon": -87.6614198, "tags": {"addr:city": "Chicago", "addr:housenumber": "6746", "addr:postcode": "60626", "addr:state": "IL", "addr:street": "North Sheridan Road", "amenity": "cinema", "name": "The New 400 Movie Theaters", "website": "http://www.thenew400.com/", "wheelchair": "yes", "wikidata": "Q42538863"}}, {"type": "node", "id": 4960948049, "lat": 41.8097751, "lon": -87.599505, "tags": {"addr:city": "Chicago", "addr:housenumber": "1060", "addr:postcode": "60653", "addr:state": "IL", "addr:street": "East 47th Street", "amenity": "arts_centre", "name": "Little Black Pearl Art Gallery", "source": "http://www.blackpearl.org/", "website": "http://www.blackpearl.org/"}}, {"type": "node", "id": 5115836538, "lat": 41.8836842, "lon": -87.6282717, "tags": {"addr:city": "Chicago", "addr:housenumber": "108", "addr:postcode": "60602", "addr:state": "IL", "addr:street": "North State Street", "amenity": "cinema", "brand": "AMC", "brand:wikidata": "Q294721", "brand:wikipedia": "en:AMC Theatres", "name": "AMC Dine-In Block 37", "screen": "11", "website": "https://www.amctheatres.com/movie-theatres/chicago/amc-dine-in-block-37", "wikidata": "Q42536186"}}, {"type": "node", "id": 5149793471, "lat": 41.9353483, "lon": -87.6639815, "tags": {"addr:city": "Chicago", "addr:housenumber": "2936", "addr:postcode": "60657", "addr:state": "IL", "addr:street": "North Southport Avenue", "amenity": "theatre", "name": "Athenaeum Theatre", "phone": "+1-773-935-6860", "website": "https://athenaeumtheatre.org/"}}, {"type": "node", "id": 5326036084, "lat": 41.8310176, "lon": -87.6565174, "tags": {"addr:city": "Chicago", "addr:housenumber": "1200", "addr:postcode": "60609", "addr:state": "IL", "addr:street": "West 35th Street", "amenity": "arts_centre", "name": "Bridgeport Art Center", "source": "http://bridgeportart.com/"}}, {"type": "node", "id": 5363908348, "lat": 41.9398331, "lon": -87.6513638, "tags": {"amenity": "theatre", "name": "The Annoyance Theater"}}, {"type": "node", "id": 5694077421, "lat": 41.9451917, "lon": -87.6492664, "tags": {"amenity": "theatre", "name": "Trickery Chicago"}}, {"type": "node", "id": 5698233279, "lat": 41.9403203, "lon": -87.649143, "tags": {"addr:city": "Chicago", "addr:housenumber": "3209", "addr:postcode": "60657", "addr:state": "IL", "addr:street": "North Halsted Street", "amenity": "theatre", "name": "The Playground Theater", "wikidata": "Q7757455", "wikipedia": "en:The Playground Theater"}}, {"type": "node", "id": 5706235755, "lat": 41.795216, "lon": -87.5972237, "tags": {"amenity": "theatre", "name": "The Revival"}}, {"type": "node", "id": 6107271183, "lat": 41.7942693, "lon": -87.618034, "tags": {"addr:city": "Chicago", "addr:housenumber": "329", "addr:postcode": "60637", "addr:state": "IL", "addr:street": "East Garfield Boulevard", "amenity": "arts_centre", "name": "Green Line Performing Arts Center", "website": "https://arts.uchicago.edu/apl/glpac"}}, {"type": "node", "id": 6297015880, "lat": 41.8764458, "lon": -87.6248703, "tags": {"addr:city": "Chicago", "addr:housenumber": "410", "addr:postcode": "60605", "addr:state": "IL", "addr:street": "South Michigan Avenue", "amenity": "theatre", "name": "Studebaker Theater", "wikidata": "Q5450045", "wikipedia": "en:Fine Arts Building (Chicago)"}}, {"type": "node", "id": 6299364885, "lat": 41.8801747, "lon": -87.6572552, "tags": {"addr:city": "Chicago", "addr:housenumber": "100", "addr:postcode": "60607", "addr:state": "IL", "addr:street": "South Racine Avenue", "amenity": "theatre", "name": "Chicago Children's Theatre", "website": "https://chicagochildrenstheatre.org/"}}, {"type": "node", "id": 6495008986, "lat": 41.9740178, "lon": -87.6683969, "tags": {"addr:city": "Chicago", "addr:housenumber": "5050", "addr:postcode": "60640", "addr:state": "IL", "addr:street": "North Clark Street", "amenity": "theatre", "name": "Chicago Magic Lounge", "website": "http://chicagomagiclounge.com"}}, {"type": "node", "id": 6892173936, "lat": 41.9816544, "lon": -87.6593692, "tags": {"amenity": "theatre", "name": "The Edge Off Broadway Theater"}}, {"type": "node", "id": 7131828762, "lat": 41.8246026, "lon": -87.6227977, "tags": {"addr:city": "Chicago", "addr:housenumber": "3831", "addr:postcode": "60653", "addr:state": "IL", "addr:street": "South Michigan Avenue", "amenity": "arts_centre", "name": "South Side Community Art Center (SSCAC)", "phone": "+1-773-373-1026", "website": "http://www.sscartcenter.org", "wikidata": "Q7568471"}}, {"type": "node", "id": 8175324612, "lat": 41.8523254, "lon": -87.7196717, "tags": {"addr:city": "Chicago", "addr:country": "US", "addr:housenumber": "2111", "addr:postcode": "60623", "addr:state": "IL", "addr:street": "South Hamlin Avenue", "amenity": "arts_centre", "name": "Firehouse Community Arts Center of Chicago", "website": "https://thefcac.org/"}}, {"type": "node", "id": 8175562210, "lat": 41.7789648, "lon": -87.6928242, "tags": {"addr:city": "Chicago", "addr:country": "US", "addr:housenumber": "2747", "addr:postcode": "60629", "addr:state": "IL", "addr:street": "West 63rd Street", "amenity": "arts_centre", "name": "IMAN Beloved Community Ceramics Studio"}}, {"type": "node", "id": 8175712870, "lat": 41.8537493, "lon": -87.7075347, "tags": {"addr:city": "Chicago", "addr:country": "US", "addr:housenumber": "1957", "addr:postcode": "60623", "addr:state": "IL", "addr:street": "South Spaulding Avenue", "amenity": "arts_centre", "name": "Chicago Urban Art Retreat Center", "phone": "+1 (773) 542-9126", "website": "https://www.urbanartretreat.com"}}, {"type": "node", "id": 8175731507, "lat": 41.8713868, "lon": -87.6961809, "tags": {"addr:city": "Chicago", "addr:country": "US", "addr:housenumber": "750", "addr:postcode": "60612", "addr:state": "IL", "addr:street": "South California Avenue", "amenity": "arts_centre", "name": "Art West Chicago", "website": "https://www.artwestchicago.com/"}}, {"type": "node", "id": 9354635436, "lat": 41.9543918, "lon": -87.6768396, "tags": {"amenity": "theatre", "name": "Bughouse Theater"}}, {"type": "node", "id": 9850272301, "lat": 41.8572813, "lon": -87.646461, "tags": {"amenity": "arts_centre", "name": "Strewn", "website": "https://www.strewnchicago.com/"}}, {"type": "node", "id": 9850357044, "lat": 41.8572034, "lon": -87.6464658, "tags": {"addr:housenumber": "1829", "addr:street": "South Halsted Drive", "amenity": "arts_centre", "name": "Art of Imagination", "phone": "+1-773-632-8553", "website": "http://artofimagination.com/"}}, {"type": "node", "id": 10198367167, "lat": 41.7982916, "lon": -87.5952387, "tags": {"addr:city": "Chicago", "addr:housenumber": "5338", "addr:postcode": "60615", "addr:state": "IL", "addr:street": "South Kimbark Avenue", "amenity": "arts_centre", "email": "4thwardprojectspace@gmail.com", "name": "4th Ward", "opening_hours": "By Appointment", "website": "https://www.4wps.org/"}}, {"type": "node", "id": 10563385713, "lat": 41.8576447, "lon": -87.6676616, "tags": {"addr:housenumber": "1637", "addr:street": "West 18th Street", "amenity": "arts_centre", "name": "Pilsen Arts Community House"}}, {"type": "node", "id": 10659667678, "lat": 42.0068234, "lon": -87.6662477, "tags": {"amenity": "arts_centre", "name": "PO Box Collective"}}, {"type": "node", "id": 10852835948, "lat": 41.8514709, "lon": -87.7155595, "tags": {"addr:city": "Chicago", "addr:housenumber": "3611", "addr:postcode": "60623", "addr:state": "IL", "addr:street": "West Cermak Road", "amenity": "theatre", "name": "Theatre Y", "website": "https://www.theatre-y.com"}}]}