{"version": 0.6, "generator": "Overpass API 0.7.60.2 e4cf9f7a", "osm3s": {"timestamp_osm_base": "2023-05-21T17:30:24Z", "timestamp_areas_base": "2023-05-21T16:11:20Z", "copyright": "The data included in this document is from www.openstreetmap.org. The data is made available under ODbL."}, "elements": [{"type": "node", "id": 463772300, "lat": 41.9254912, "lon": -87.6616117, "tags": {"leisure": "fitness_centre", "name": "Lakeshore Athletic Club"}}, {"type": "node", "id": 1860716871, "lat": 41.9627868, "lon": -87.6868992, "tags": {"covered": "yes", "leisure": "swimming_pool", "location": "indoor", "name": "Welles Park Swimming Pool", "sport": "swimming"}}, {"type": "node", "id": 1892429510, "lat": 41.9440493, "lon": -87.6636329, "tags": {"addr:housenumber": "3413", "addr:street": "North Southport Avenue", "leisure": "sports_centre", "name": "Southport Fitness"}}, {"type": "node", "id": 2274416797, "lat": 41.9892171, "lon": -87.6596351, "tags": {"leisure": "fitness_centre", "name": "Trapeze School New York - indoor location", "phone": "+1-773-484-8861", "website": "https://chicago.trapezeschool.com/"}}, {"type": "node", "id": 2362605070, "lat": 41.8679223, "lon": -87.6272141, "tags": {"addr:housenumber": "1151", "addr:postcode": "60605", "addr:street": "South State Street", "leisure": "sports_centre", "name": "Fitness Formula Clubs", "website": "https://www.ffc.com/"}}, {"type": "node", "id": 2379324276, "lat": 41.8712304, "lon": -87.6272626, "tags": {"addr:housenumber": "819", "addr:postcode": "60605", "addr:street": "South State Street", "leisure": "fitness_centre", "name": "XSport Fitness", "website": "https://www.xsportfitness.com/"}}, {"type": "node", "id": 2422407798, "lat": 41.8682181, "lon": -87.6385257, "tags": {"brand": "LA Fitness", "brand:wikidata": "Q6457180", "brand:wikipedia": "en:LA Fitness", "leisure": "fitness_centre", "name": "LA Fitness", "website": "https://www.lafitness.com"}}, {"type": "node", "id": 2422439456, "lat": 41.8945599, "lon": -87.6537179, "tags": {"addr:city": "Chicago", "addr:housenumber": "700", "addr:postcode": "60642", "addr:state": "IL", "addr:street": "North Carpenter Street", "leisure": "fitness_centre", "name": "Moksha Yoga Center", "sport": "yoga"}}, {"type": "node", "id": 2535218185, "lat": 41.8898877, "lon": -87.6731032, "tags": {"addr:housenumber": "1812", "addr:postcode": "60622", "addr:street": "West Hubbard Street", "entrance": "entrance", "leisure": "fitness_centre", "level": "1", "name": "BluPrint Fitness", "website": "http://www.bluprintfit.com"}}, {"type": "node", "id": 2695004007, "lat": 41.9260038, "lon": -87.6405346, "tags": {"addr:city": "Chicago", "addr:housenumber": "2417", "addr:postcode": "60614", "addr:street": "North Clark Street", "leisure": "fitness_centre", "name": "TITLE Boxing Club Chicago Lincoln Park", "phone": "+1-773-312-4726", "source": "http://chicago-lincolnpark.titleboxingclub.com/", "sport": "boxing", "website": "http://chicago-lincolnpark.titleboxingclub.com/"}}, {"type": "node", "id": 2838195041, "lat": 41.9698235, "lon": -87.6751761, "tags": {"brand": "LA Fitness", "brand:wikidata": "Q6457180", "brand:wikipedia": "en:LA Fitness", "leisure": "fitness_centre", "name": "LA Fitness", "note": "Entrance in the rear of building, by parking lot.", "website": "https://www.lafitness.com/"}}, {"type": "node", "id": 2967030996, "lat": 41.7590788, "lon": -87.5682821, "tags": {"leisure": "fitness_centre", "name": "360 Mind Body Soul", "website": "https://www.360mbs.com/"}}, {"type": "node", "id": 3015681541, "lat": 41.9774652, "lon": -87.6685261, "tags": {"addr:city": "Chicago", "addr:housenumber": "5248", "addr:postcode": "60640", "addr:state": "IL", "addr:street": "North Clark Street", "leisure": "sports_centre", "name": "Cheetah Gym", "phone": "+1-773-728-7777"}}, {"type": "node", "id": 3289300961, "lat": 41.9536911, "lon": -87.7407726, "tags": {"addr:city": "Chicago", "addr:housenumber": "4504", "addr:postcode": "60641", "addr:state": "IL", "addr:street": "West Irving Park Road", "brand": "Snap Fitness", "brand:wikidata": "Q7547254", "brand:wikipedia": "en:Snap Fitness", "leisure": "fitness_centre", "name": "Snap Fitness"}}, {"type": "node", "id": 3292745986, "lat": 41.7662969, "lon": -87.5796974, "tags": {"addr:city": "Chicago", "addr:housenumber": "1840", "addr:postcode": "60649", "addr:state": "IL", "addr:street": "East 71st Street", "leisure": "fitness_centre", "name": "Studio Yogi", "sport": "yoga", "website": "https://www.studioyogi.com"}}, {"type": "node", "id": 3570195335, "lat": 41.9132429, "lon": -87.7112071, "tags": {"addr:city": "Chicago", "addr:housenumber": "1757", "addr:postcode": "60647", "addr:state": "IL", "addr:street": "North Kimball Avenue", "leisure": "sports_centre", "name": "Archery Bow Range Chicago", "sport": "archery", "website": "http://www.archerybowrangechicago.com"}}, {"type": "node", "id": 3570229767, "lat": 41.9125466, "lon": -87.6813642, "tags": {"brand": "CorePower Yoga", "brand:wikidata": "Q21015663", "brand:wikipedia": "en:CorePower Yoga", "leisure": "fitness_centre", "name": "CorePower Yoga", "sport": "yoga"}}, {"type": "node", "id": 3581815763, "lat": 41.9066751, "lon": -87.6630518, "tags": {"leisure": "sports_centre", "name": "World Sport Chicago Archery Range", "sport": "archery"}}, {"type": "node", "id": 3602856802, "lat": 41.9050942, "lon": -87.7551765, "tags": {"leisure": "swimming_pool"}}, {"type": "node", "id": 3611446817, "lat": 41.7818494, "lon": -87.6049324, "tags": {"indoor": "yes", "leisure": "swimming_pool", "location": "indoor", "operator": "Chicago Park District", "swimming_pool": "indoor"}}, {"type": "node", "id": 3617758004, "lat": 41.9211094, "lon": -87.6648951, "tags": {"brand": "LA Fitness", "brand:wikidata": "Q6457180", "brand:wikipedia": "en:LA Fitness", "leisure": "fitness_centre", "name": "LA Fitness"}}, {"type": "node", "id": 3659464571, "lat": 41.9031228, "lon": -87.6713618, "tags": {"leisure": "sports_centre", "name": "Wicker Park Fitness"}}, {"type": "node", "id": 3863382628, "lat": 41.9304101, "lon": -87.6860028, "tags": {"leisure": "fitness_centre", "name": "XSport Fitness"}}, {"type": "node", "id": 3882086460, "lat": 41.9248095, "lon": -87.71378, "tags": {"leisure": "sports_centre", "name": "Push Fitness"}}, {"type": "node", "id": 3882461188, "lat": 41.9250564, "lon": -87.6910616, "tags": {"leisure": "sports_centre", "name": "Rock Hard Gym"}}, {"type": "node", "id": 3918948788, "lat": 41.8911742, "lon": -87.6205169, "tags": {"addr:city": "Chicago", "addr:postcode": "60611", "addr:state": "IL", "addr:street": "East Illinois Street", "brand": "Planet Fitness", "brand:wikidata": "Q7201095", "brand:wikipedia": "en:Planet Fitness", "leisure": "fitness_centre", "name": "Planet Fitness"}}, {"type": "node", "id": 3993096533, "lat": 41.9954062, "lon": -87.6791571, "tags": {"leisure": "sports_centre", "name": "Moore Family Aquatic Center", "sport": "swimming"}}, {"type": "node", "id": 4035075906, "lat": 41.7997023, "lon": -87.5871276, "tags": {"addr:city": "Chicago", "addr:country": "US", "addr:housenumber": "1558", "addr:postcode": "60615", "addr:state": "IL", "addr:street": "East 53rd Street", "leisure": "fitness_centre", "name": "Anthos Training Club"}}, {"type": "node", "id": 4075414531, "lat": 41.8691649, "lon": -87.7143431, "tags": {"leisure": "swimming_pool", "location": "indoor"}}, {"type": "node", "id": 4081878208, "lat": 41.9102322, "lon": -87.6764286, "tags": {"leisure": "sports_centre", "name": "Cheetah Gym"}}, {"type": "node", "id": 4090881255, "lat": 41.9535968, "lon": -87.749788, "tags": {"leisure": "fitness_centre", "name": "Crossfit Chisel"}}, {"type": "node", "id": 4124179103, "lat": 41.9231939, "lon": -87.6983556, "tags": {"leisure": "sports_centre", "name": "TulaYoga Studio"}}, {"type": "node", "id": 4472578071, "lat": 41.995011, "lon": -87.6574064, "tags": {"addr:city": "Chicago", "addr:housenumber": "1040", "addr:postcode": "60660", "addr:state": "IL", "addr:street": "West Granville Avenue", "leisure": "sports_centre", "name": "Edgewater Athletic Club", "phone": "+1-773-262-2455", "website": "http://edgewaterathletic.com", "wheelchair": "limited"}}, {"type": "node", "id": 4643161179, "lat": 41.88436, "lon": -87.6258983, "tags": {"brand": "LA Fitness", "brand:wikidata": "Q6457180", "brand:wikipedia": "en:LA Fitness", "leisure": "fitness_centre", "name": "LA Fitness"}}, {"type": "node", "id": 4643162227, "lat": 41.8861359, "lon": -87.6221637, "tags": {"leisure": "fitness_centre", "name": "Lakeshore Fitness"}}, {"type": "node", "id": 4724784078, "lat": 41.888827, "lon": -87.635255, "tags": {"leisure": "fitness_centre", "name": "River North Gym", "sport": "fitness"}}, {"type": "node", "id": 4848469819, "lat": 41.877617, "lon": -87.6493987, "tags": {"addr:city": "Chicago", "addr:housenumber": "313", "addr:postcode": "60607", "addr:state": "IL", "addr:street": "South Peoria Street", "leisure": "fitness_centre", "name": "TITLE Boxing Club", "sport": "boxing"}}, {"type": "node", "id": 4989764321, "lat": 41.9748405, "lon": -87.6680258, "tags": {"addr:city": "Chicago", "addr:housenumber": "5117", "addr:postcode": "60640", "addr:state": "IL", "addr:street": "North Clark Street", "email": "josha@krustrengthandfitness.com", "leisure": "fitness_centre", "name": "Kru Strength + Fitness", "opening_hours": "Mo-Su 06:00-21:00", "phone": "+1-773-944-1570", "website": "https://www.krustrengthandfitness.com/"}}, {"type": "node", "id": 5106617244, "lat": 41.8317351, "lon": -87.6150077, "tags": {"addr:city": "Chicago", "addr:housenumber": "3435", "addr:postcode": "60616", "addr:state": "IL", "addr:street": "South Doctor Martin Luther King Junior Drive", "brand": "LA Fitness", "brand:wikidata": "Q6457180", "brand:wikipedia": "en:LA Fitness", "leisure": "fitness_centre", "name": "LA Fitness"}}, {"type": "node", "id": 5138412953, "lat": 41.9399509, "lon": -87.6599183, "tags": {"addr:city": "Chicago", "addr:housenumber": "1220", "addr:postcode": "60657", "addr:street": "West Belmont Avenue", "leisure": "sports_centre", "name": "Thousand Waves Martial Arts & Self-Defense Center", "opening_hours": "Tu-Th 12:30-19:00; Sa 09:30-16:30", "phone": "+1 773 472 7663", "sport": "karate", "website": "http://www.thousandwaves.org"}}, {"type": "node", "id": 5165404617, "lat": 41.9031584, "lon": -87.6690826, "tags": {"addr:city": "Chicago", "addr:country": "US", "addr:housenumber": "1635", "addr:postcode": "60622", "addr:state": "IL", "addr:street": "West Division Street", "leisure": "fitness_centre", "name": "Wicker Park Athletic Club"}}, {"type": "node", "id": 5425340104, "lat": 41.9530835, "lon": -87.7503031, "tags": {"addr:city": "Chicago", "addr:country": "US", "addr:housenumber": "4901", "addr:postcode": "60641", "addr:state": "IL", "addr:street": "West Irving Park Road", "brand": "Retro Fitness", "brand:wikidata": "Q61994955", "email": "chicagoilirvingpark@retrofitness.net", "leisure": "fitness_centre", "name": "Retro Fitness", "opening_hours": "Mo-Fr 04:00-00:00; Sa 07:00-22:00; Su 07:00-20:00", "operator": "Retro Fitness", "phone": "+1-773-840-7451", "ref:retrofitness": "32044", "website": "https://retrofitness.com/location/chicagoilirvingpark/"}}, {"type": "node", "id": 5597510821, "lat": 41.9066527, "lon": -87.6713744, "tags": {"addr:postcode": "60622", "leisure": "fitness_centre", "name": "TITLE Boxing Club", "name:en": "TITLE Boxing Club Wicker Park"}}, {"type": "node", "id": 5695499421, "lat": 41.9413494, "lon": -87.6696195, "tags": {"leisure": "fitness_centre", "name": "Xsport Fitness"}}, {"type": "node", "id": 5698210190, "lat": 41.9413599, "lon": -87.6494979, "tags": {"leisure": "fitness_centre", "name": "Steamworks"}}, {"type": "node", "id": 5698233277, "lat": 41.9410058, "lon": -87.6494823, "tags": {"leisure": "fitness_centre", "name": "Fitness Formula Center"}}, {"type": "node", "id": 5699638582, "lat": 41.9404401, "lon": -87.6445792, "tags": {"addr:city": "Chicago", "addr:housenumber": "3212", "addr:postcode": "60657", "addr:state": "IL", "addr:street": "North Broadway", "leisure": "fitness_centre", "name": "Lakeview Athletic Club", "opening_hours": "Mo-Th 05:00-23:00; Fr 05:00-22:00; Sa,Su 07:00-21:00"}}, {"type": "node", "id": 5904245831, "lat": 41.9616497, "lon": -87.6530974, "tags": {"addr:city": "Chicago", "addr:housenumber": "909", "addr:postcode": "60613", "addr:state": "IL", "addr:street": "West Montrose Avenue", "leisure": "fitness_centre", "name": "Uptown Fitness Center"}}, {"type": "node", "id": 5910442394, "lat": 41.9208103, "lon": -87.7971537, "tags": {"leisure": "sports_centre", "name": "Sayre Park Weightlifting Club", "sport": "weightlifting;crossf"}}, {"type": "node", "id": 5910923585, "lat": 41.8736279, "lon": -87.630315, "tags": {"leisure": "sports_centre", "name": "South Loop Strength", "sport": "weightlifting;crossfit"}}, {"type": "node", "id": 5942528597, "lat": 41.8681734, "lon": -87.6330458, "tags": {"addr:city": "Chicago", "addr:housenumber": "1136", "addr:postcode": "60605", "addr:state": "IL", "addr:street": "South Delano Court", "addr:unit": "#B201", "email": "soiceyelites@gmail.com", "leisure": "fitness_centre", "name": "So Icey Elites", "opening_hours": "Mo-Fr 06:00-21:00; Sa 08:00-13:00; Su 08:00-18:30", "phone": "+1-312-998-5504", "sport": "boxing;fitness;workout;weightlifting;weightloss;fatburning;apperal;clothing;office;lounge;so;athletics;gymnastics;gym", "website": "soiceyelites.com"}}, {"type": "node", "id": 6187917054, "lat": 41.9052351, "lon": -87.6483458, "tags": {"addr:city": "Chicago", "addr:housenumber": "800", "addr:postcode": "60642", "addr:state": "IL", "addr:street": "West Scott Street", "branch": "Lincoln Park", "brand": "iFLY", "brand:wikidata": "Q64767105", "fee": "yes", "leisure": "sports_centre", "name": "iFLY", "phone": "+1-779-368-4359", "sport": "indoor_skydiving", "website": "https://www.iflyworld.com/lincoln-park/"}}, {"type": "node", "id": 6253950517, "lat": 41.895153, "lon": -87.6534235, "tags": {"addr:city": "Chicago", "addr:housenumber": "731", "addr:postcode": "60642", "addr:state": "IL", "addr:street": "North Milwaukee Avenue", "brand": "Orangetheory Fitness", "brand:wikidata": "Q25005163", "brand:wikipedia": "en:Orangetheory Fitness", "leisure": "fitness_centre", "name": "Orangetheory Fitness"}}, {"type": "node", "id": 6265112454, "lat": 41.9971637, "lon": -87.7629902, "tags": {"leisure": "sports_centre", "name": "Villari's Martial Arts", "sport": "martial_arts"}}, {"type": "node", "id": 6273490560, "lat": 41.9975863, "lon": -87.762812, "tags": {"leisure": "fitness_centre", "name": "Chicago Strength & Conditioning"}}, {"type": "node", "id": 6283017408, "lat": 41.9061229, "lon": -87.6710862, "tags": {"addr:city": "Chicago", "addr:housenumber": "1344", "addr:postcode": "60622", "addr:state": "IL", "addr:street": "North Milwaukee Avenue", "addr:unit": "3", "leisure": "fitness_centre", "name": "105F", "sport": "yoga"}}, {"type": "node", "id": 6375342715, "lat": 41.9776524, "lon": -87.9041296, "tags": {"leisure": "sports_centre", "level": "-1", "name": "Hilton Fitness"}}, {"type": "node", "id": 6390528707, "lat": 41.9754406, "lon": -87.9034638, "tags": {"leisure": "fitness_centre", "level": "2", "name": "Yoga Room", "sport": "yoga"}}, {"type": "node", "id": 6482767946, "lat": 41.6820387, "lon": -87.5383457, "tags": {"addr:city": "Chicago", "addr:housenumber": "3512", "addr:postcode": "60617", "addr:state": "IL", "addr:street": "East 118th Street", "brand": "Planet Fitness", "brand:wikidata": "Q7201095", "brand:wikipedia": "en:Planet Fitness", "leisure": "fitness_centre", "name": "Planet Fitness", "opening_hours": "24/7", "phone": "+1-773-359-2300"}}, {"type": "node", "id": 6538249094, "lat": 41.8961639, "lon": -87.6705442, "tags": {"addr:city": "Chicago", "addr:housenumber": "1718", "addr:postcode": "60622", "addr:state": "IL", "addr:street": "West Chicago Avenue", "leisure": "fitness_centre", "name": "CrossFit CE", "phone": "+1-(773) 791-7139", "sport": "crossfit"}}, {"type": "node", "id": 6737957051, "lat": 41.9406049, "lon": -87.6442759, "tags": {"addr:city": "Chicago", "addr:housenumber": "3215", "addr:postcode": "60657", "addr:state": "IL", "addr:street": "North Broadway", "leisure": "fitness_centre", "name": "UFC Gym Wrigleyvile"}}, {"type": "node", "id": 6744908267, "lat": 41.9398203, "lon": -87.6483131, "tags": {"fixme": "mediation = Brahama Kumaris Mediation Center", "leisure": "fitness_centre", "sport": "yoga"}}, {"type": "node", "id": 6753678240, "lat": 41.9063734, "lon": -87.6506692, "tags": {"addr:city": "Chicago", "addr:housenumber": "1418", "addr:postcode": "60642", "addr:state": "IL", "addr:street": "North Kingsbury Street", "leisure": "fitness_centre", "name": "enerGEEwhizz", "website": "https://energeewhizz.com"}}, {"type": "node", "id": 6969866789, "lat": 41.9457208, "lon": -87.6915922, "tags": {"leisure": "swimming_pool", "location": "indoor"}}, {"type": "node", "id": 6997034222, "lat": 41.9583727, "lon": -87.7884284, "tags": {"leisure": "swimming_pool", "location": "indoor"}}, {"type": "node", "id": 7087365640, "lat": 41.9550545, "lon": -87.7629396, "tags": {"leisure": "sports_centre", "name": "Diving Platform", "sport": "swimming"}}, {"type": "node", "id": 7097887002, "lat": 41.8902942, "lon": -87.6756355, "tags": {"leisure": "swimming_pool", "location": "indoor", "name": "Goldfish Swim School - Wicker Park"}}, {"type": "node", "id": 7178445239, "lat": 41.9758218, "lon": -87.8096052, "tags": {"addr:city": "Chicago", "addr:housenumber": "7300", "addr:postcode": "60656", "addr:state": "IL", "addr:street": "West Foster Avenue", "brand": "Planet Fitness", "brand:wikidata": "Q7201095", "brand:wikipedia": "en:Planet Fitness", "leisure": "fitness_centre", "name": "Planet Fitness"}}, {"type": "node", "id": 7179700300, "lat": 41.885213, "lon": -87.6472655, "tags": {"leisure": "fitness_centre", "name": "Cycle Bar"}}, {"type": "node", "id": 7179700301, "lat": 41.8855372, "lon": -87.6472666, "tags": {"leisure": "fitness_centre", "name": "Row House"}}, {"type": "node", "id": 7209753932, "lat": 41.6986288, "lon": -87.5976524, "tags": {"addr:city": "Chicago", "addr:housenumber": "10808", "addr:postcode": "60628", "addr:state": "IL", "addr:street": "South Doty Avenue", "brand": "Planet Fitness", "brand:wikidata": "Q7201095", "brand:wikipedia": "en:Planet Fitness", "leisure": "fitness_centre", "name": "Planet Fitness", "website": "https://www.planetfitness.com/gyms/chicago-pullman-park-il"}}, {"type": "node", "id": 7393995557, "lat": 41.9504009, "lon": -87.6497772, "tags": {"addr:city": "Chicago", "addr:housenumber": "3738", "addr:postcode": "60613", "addr:state": "IL", "addr:street": "North Halsted Street", "addr:unit": "#2", "branch": "Chicago - Wrigleyville", "brand": "Orangetheory Fitness", "brand:wikidata": "Q25005163", "brand:wikipedia": "en:Orangetheory Fitness", "leisure": "fitness_centre", "name": "Orangetheory Fitness", "opening_hours": "Mo-Fr 05:30-20:30; Sa 07:45-13:15; Su 07:45-12:00", "phone": "+1 224 252 0242", "website": "https://www.orangetheory.com/en-us/locations/illinois/chicago/3738-n-halsted-st-2/?utm_medium=seo&utm_source=gg&utm_term=tombras&utm_campaign=reputationdotcom--National"}}, {"type": "node", "id": 7491974624, "lat": 41.9251436, "lon": -87.7878296, "tags": {"addr:city": "Chicago", "addr:housenumber": "6420", "addr:postcode": "60707", "addr:state": "IL", "addr:street": "West Fullerton Avenue", "leisure": "fitness_centre", "name": "X-Sport Fitness"}}, {"type": "node", "id": 7505577056, "lat": 41.9083121, "lon": -87.7489363, "tags": {"addr:city": "Chicago", "addr:housenumber": "4905", "addr:postcode": "60639", "addr:state": "IL", "addr:street": "West North Avenue", "brand": "Planet Fitness", "brand:wikidata": "Q7201095", "brand:wikipedia": "en:Planet Fitness", "leisure": "fitness_centre", "name": "Planet Fitness"}}, {"type": "node", "id": 7557514485, "lat": 41.8818061, "lon": -87.6571128, "tags": {"addr:city": "Chicago", "addr:housenumber": "1170", "addr:postcode": "60607", "addr:state": "IL", "addr:street": "West Madison Street", "brand": "Pure Barre", "brand:wikidata": "Q86707084", "leisure": "fitness_centre", "name": "Pure Barre"}}, {"type": "node", "id": 7601752396, "lat": 42.0182356, "lon": -87.6735256, "tags": {"addr:city": "Chicago", "addr:housenumber": "7529", "addr:postcode": "60626", "addr:state": "IL", "addr:street": "North Clark Street", "brand": "Esporta Fitness", "brand:wikidata": "Q109354882", "brand:wikipedia": "en:LA Fitness", "leisure": "fitness_centre", "name": "Esporta Fitness"}}, {"type": "node", "id": 7732070033, "lat": 41.9314478, "lon": -87.6568448, "tags": {"addr:city": "Chicago", "addr:housenumber": "2727", "addr:postcode": "60614", "addr:state": "IL", "addr:street": "North Lincoln Avenue", "addr:unit": "2", "leisure": "fitness_centre", "name": "Renzo Gracie Chicago Brazilian Jiu-Jitsu", "phone": "+1-312-877-4711", "sport": "jiu-jitsu", "website": "https://renzograciechicago.com/"}}, {"type": "node", "id": 7805421894, "lat": 41.8088702, "lon": -87.678213, "tags": {"addr:city": "Chicago", "addr:housenumber": "4646", "addr:postcode": "60609", "addr:state": "IL", "addr:street": "South Damen Avenue", "brand": "Planet Fitness", "brand:wikidata": "Q7201095", "brand:wikipedia": "en:Planet Fitness", "leisure": "fitness_centre", "name": "Planet Fitness"}}, {"type": "node", "id": 7901484015, "lat": 41.9249307, "lon": -87.6477665, "tags": {"addr:city": "Chicago", "addr:housenumber": "2355", "addr:postcode": "60614", "addr:state": "IL", "addr:street": "North Lincoln Avenue", "brand": "Equinox", "brand:wikidata": "Q5384535", "leisure": "fitness_centre", "name": "Equinox"}}, {"type": "node", "id": 8166692613, "lat": 41.795371, "lon": -87.72495, "tags": {"leisure": "fitness_centre", "name": "Charter Fitness"}}, {"type": "node", "id": 8416901711, "lat": 41.8840419, "lon": -87.62876, "tags": {"addr:city": "Chicago", "addr:floor": "4", "addr:housenumber": "108", "addr:postcode": "60602", "addr:state": "IL", "addr:street": "North State Street", "addr:unit": "420", "building": "retail", "email": "info@firstascentclimbing.com", "leisure": "sports_centre", "name": "First Ascent Block 37", "opening_hours": "Mo-Fr 06:00-23:00; Sa-Su 18:00-20:00", "phone": "+1 (312) 285-2337", "sport": "climbing;yoga", "website": "https://faclimbing.com/chicago/block-37/"}}, {"type": "node", "id": 8463924068, "lat": 41.7920627, "lon": -87.703246, "tags": {"addr:city": "Chicago", "addr:housenumber": "5559", "addr:postcode": "60629", "addr:state": "IL", "addr:street": "South Kedzie Avenue", "brand": "LA Fitness", "brand:wikidata": "Q6457180", "brand:wikipedia": "en:LA Fitness", "leisure": "fitness_centre", "name": "LA Fitness", "website": "https://www.lafitness.com/pages/clubhome.aspx?clubid=1062&Chicago-Illinois+GYM"}}, {"type": "node", "id": 8608105226, "lat": 41.9932677, "lon": -87.8003022, "tags": {"addr:city": "Chicago", "addr:housenumber": "6137", "addr:postcode": "60631", "addr:state": "IL", "addr:street": "North Northwest Highway", "leisure": "fitness_centre", "name": "MBS 24-7 Fitness"}}, {"type": "node", "id": 8619401967, "lat": 41.78059, "lon": -87.6052352, "tags": {"addr:city": "Chicago", "addr:housenumber": "816", "addr:postcode": "60637", "addr:state": "IL", "addr:street": "East 63rd Street", "leisure": "fitness_centre", "name": "Blue Lotus", "phone": "+1-773-599-1892", "sport": "yoga", "website": "https://www.bluelotuschicago.com"}}, {"type": "node", "id": 8869367481, "lat": 41.977579, "lon": -87.8376507, "tags": {"addr:city": "Chicago", "addr:housenumber": "5444", "addr:postcode": "60656", "addr:state": "IL", "addr:street": "North Cumberland Avenue", "brand": "LA Fitness", "brand:wikidata": "Q6457180", "brand:wikipedia": "en:LA Fitness", "leisure": "fitness_centre", "name": "LA Fitness"}}, {"type": "node", "id": 8899360281, "lat": 41.7997285, "lon": -87.5859219, "tags": {"addr:city": "Chicago", "addr:housenumber": "1618", "addr:postcode": "60615", "addr:state": "IL", "addr:street": "East 53rd Street", "leisure": "fitness_centre", "name": "YogaSix Hyde Park", "phone": "+1 (312) 825-1167", "sport": "yoga", "website": "https://www.yogasix.com/location/hyde-park"}}, {"type": "node", "id": 8936283289, "lat": 41.9413553, "lon": -87.6894475, "tags": {"addr:city": "Chicago", "addr:housenumber": "3328", "addr:postcode": "60618", "addr:state": "IL", "addr:street": "North Western Avenue", "brand": "Orangetheory Fitness", "brand:wikidata": "Q25005163", "brand:wikipedia": "en:Orangetheory Fitness", "leisure": "fitness_centre", "name": "Orangetheory Fitness", "opening_hours": "by_appointment", "phone": "+1 (312) 971-6223", "website": "https://www.orangetheory.com/en-us/locations/illinois/chicago/3328-n-western-ave/"}}, {"type": "node", "id": 9077831828, "lat": 41.8188649, "lon": -87.6259902, "tags": {"addr:city": "Chicago", "addr:housenumber": "4131", "addr:postcode": "60609", "addr:state": "IL", "addr:street": "South State Street", "leisure": "fitness_centre", "name": "12th Flow Performance System", "phone": "+1 (312) 838-7104", "website": "https://www.13thflow.com"}}, {"type": "node", "id": 9099508941, "lat": 41.9035002, "lon": -87.6693806, "tags": {"addr:city": "Chicago", "addr:housenumber": "1642", "addr:postcode": "60622", "addr:state": "IL", "addr:street": "West Division Street", "leisure": "fitness_centre", "name": "Solidcore", "website": "https://www.solidcore.co/chicago/wicker-park/"}}, {"type": "node", "id": 9354635426, "lat": 41.9550809, "lon": -87.6791796, "tags": {"brand": "Club Pilates", "brand:wikidata": "Q109328844", "leisure": "fitness_centre", "name": "Club Pilates", "sport": "pilates"}}, {"type": "node", "id": 9354635442, "lat": 41.9579509, "lon": -87.6883383, "tags": {"leisure": "sports_centre", "name": "Big Blue Swim School", "sport": "swimming"}}, {"type": "node", "id": 9556324745, "lat": 41.907987, "lon": -87.6495845, "tags": {"addr:city": "Chicago", "addr:housenumber": "1460", "addr:postcode": "60642", "addr:state": "IL", "addr:street": "North Dayton Street", "building": "commercial", "email": "lincolnpark@movementgyms.com", "fee": "yes", "leisure": "sports_centre", "name": "Movement Lincoln Park", "opening_hours": "Mo-Fr 06:00-23:00; Sa 08:00-20:00; Su 08:00-18:00", "phone": "+1 (312) 579-4454", "sport": "climbing", "website": "https://movementgyms.com/lincoln-park/"}}, {"type": "node", "id": 9850361534, "lat": 41.8964703, "lon": -87.7015534, "tags": {"addr:city": "Chicago", "addr:housenumber": "2950", "addr:postcode": "60622", "addr:state": "IL", "addr:street": "West Grand Avenue", "leisure": "sports_centre", "name": "First Ascent", "opening_hours": "Mo-Fr 06:00-23:00; Sa, Su 10:00-20:00", "phone": "+1 773 697 9743", "sport": "climbing", "website": "https://faclimbing.com/chicago/humboldt-park/"}}, {"type": "node", "id": 9857039051, "lat": 41.9340485, "lon": -87.6360917, "tags": {"leisure": "fitness_station", "sport": "fitness"}}, {"type": "node", "id": 9940043099, "lat": 41.9221825, "lon": -87.6948284, "tags": {"brand": "Orangetheory Fitness", "brand:wikidata": "Q25005163", "leisure": "fitness_centre", "name": "Orangetheory Fitness"}}, {"type": "node", "id": 9969716260, "lat": 41.9362781, "lon": -87.6694589, "tags": {"addr:city": "Chicago", "addr:housenumber": "3010", "addr:postcode": "60657", "addr:state": "IL", "addr:street": "North Ashland Avenue", "brand": "Orangetheory Fitness", "brand:wikidata": "Q25005163", "leisure": "fitness_centre", "name": "Orangetheory Fitness"}}, {"type": "node", "id": 10003021860, "lat": 41.9069728, "lon": -87.6347905, "tags": {"brand": "Pure Barre", "brand:wikidata": "Q86707084", "leisure": "fitness_centre", "name": "Pure Barre"}}, {"type": "node", "id": 10066963863, "lat": 41.9532539, "lon": -87.649523, "tags": {"addr:city": "Chicago", "addr:housenumber": "3911", "addr:postcode": "60613", "addr:state": "IL", "addr:street": "North Broadway", "branch": "Lakeview", "brand": "9Round Kickboxing Fitness", "leisure": "fitness_centre", "name": "9Round Fitness", "opening_hours": "Mo 06:30-12:00,15:30-20:00; Tu 06:00-12:00,15:30-20:00; We 06:30-12:00,15:30-20:00; Th 06:00-12:00,15:30-20:00; Fr 06:30-12:00,15:30-19:00; Sa-Su 08:30-12:30; PH off", "phone": "+1 773 657 5051", "sport": "kickboxing", "website": "https://www.9round.com/locations/il/chicago/lakeview"}}, {"type": "node", "id": 10080118740, "lat": 41.9534727, "lon": -87.6502393, "tags": {"addr:city": "Chicago", "addr:housenumber": "3924", "addr:postcode": "60613", "addr:state": "IL", "addr:street": "North Broadway", "leisure": "fitness_centre", "name": "Strong Hands Gym", "phone": "+1 786 647 1352", "website": "https://www.stronghandsgym.com"}}, {"type": "node", "id": 10091391954, "lat": 41.9523379, "lon": -87.6498092, "tags": {"addr:city": "Chicago", "addr:housenumber": "3834", "addr:postcode": "60613", "addr:state": "IL", "addr:street": "North Broadway", "email": "info@defined.training", "leisure": "fitness_centre", "name": "Defined Training", "opening_hours": "Mo-Fr 5:30-21:00, Sa-Su 8:00-14:00", "sport": "crossfit", "website": "https://defined.training/"}}, {"type": "node", "id": 10114127522, "lat": 41.7394982, "lon": -87.5304723, "tags": {"leisure": "sports_centre", "sport": "climbing"}}, {"type": "node", "id": 10135846235, "lat": 41.9107432, "lon": -87.6691952, "tags": {"brand": "Orangetheory Fitness", "brand:wikidata": "Q25005163", "leisure": "fitness_centre", "name": "Orangetheory Fitness"}}, {"type": "node", "id": 10198279573, "lat": 41.8899263, "lon": -87.6729489, "tags": {"addr:city": "Chicago", "addr:housenumber": "1812", "addr:postcode": "60612", "addr:state": "IL", "addr:street": "West Hubbard Street", "leisure": "fitness_centre", "name": "BluPrint Fitness", "sport": "fitness;weightlifting;crossfit", "website": "www.bluprintfit.com"}}, {"type": "node", "id": 10249266372, "lat": 41.9106915, "lon": -87.6529109, "tags": {"leisure": "fitness_centre", "name": "Fitness Formula Clubs"}}, {"type": "node", "id": 10563318238, "lat": 41.9108853, "lon": -87.6412458, "tags": {"leisure": "fitness_centre", "name": "All About Dance", "sport": "dance"}}, {"type": "node", "id": 10772390184, "lat": 41.9530326, "lon": -87.7933115, "tags": {"addr:city": "Chicago", "addr:housenumber": "6628", "addr:postcode": "60634", "addr:state": "IL", "addr:street": "West Irving Park Road", "leisure": "fitness_centre", "name": "Iron Mine Gym", "opening_hours": "24/7", "opening_hours:reception": "Mo-Fr 10:00-20:00; Sa-Su 10:00-17:00", "phone": "+1-773-979-0034", "sport": "weightlifting;fitness", "website": "https://www.ironminechicago.com/"}}, {"type": "node", "id": 10794129951, "lat": 41.8989062, "lon": -87.6867004, "tags": {"check_date:opening_hours": "2023-04-07", "description": "Dance-style fitness for everyone.", "leisure": "fitness_centre", "name": "Wear|Haus Chi", "opening_hours:signed": "no", "website": "https://www.wearhauschi.com/"}}, {"type": "node", "id": 10833615537, "lat": 41.8553046, "lon": -87.6268319, "tags": {"addr:housenumber": "2001", "addr:street": "South State Street", "leisure": "fitness_centre", "name": "Phenomenal Fitness", "website": "https://phenomenalfitness.com/"}}, {"type": "node", "id": 10853239372, "lat": 41.9374889, "lon": -87.6445072, "tags": {"addr:city": "Chicago", "addr:housenumber": "3030", "addr:postcode": "60657", "addr:state": "IL", "addr:street": "North Broadway", "description": "Basketball court open 5am - 11:30pm", "leisure": "fitness_centre", "name": "XSport Fitness", "opening_hours": "24/7", "phone": "(773) 634-7333", "sport": "basketball;swimming", "website": "https://www.xsportfitness.com/locations/east-lakeview-chicago-gym.aspx"}}, {"type": "node", "id": 10876301490, "lat": 42.0082718, "lon": -87.6593333, "tags": {"leisure": "fitness_station"}}, {"type": "node", "id": 10876341320, "lat": 42.007804, "lon": -87.6591556, "tags": {"leisure": "fitness_station", "name": "Loyola Park Fitness Zone"}}]}